CSS (TIANHE)            
1 48274U 21035A   24030.61544944  .00017638  00000+0  19249-3 0  9994
2 48274  41.4670 209.7756 0008769 269.7823  90.2012 15.62905608157405
